[{"OBJECT_NAME":"STARLINK-3805","OBJECT_ID":"2022-045AY","EPOCH":"2026-03-09T15:13:56.098848","MEAN_MOTION":15.08844916,"ECCENTRICITY":0.0001258,"INCLINATION":53.2172,"RA_OF_ASC_NODE":189.5906,"ARG_OF_PERICENTER":109.0464,"MEAN_ANOMALY":251.0665,"EPHEMERIS_TYPE":0,"CLASSIFICATION_TYPE":"U","NORAD_CAT_ID":52377,"ELEMENT_SET_NO":999,"REV_AT_EPOCH":21590,"BSTAR":-9.6292e-5,"MEAN_MOTION_DOT":-1.82e-5,"MEAN_MOTION_DDOT":0},{"OBJECT_NAME":"OBJECT E","OBJECT_ID":"2025-292E","EPOCH":"2026-03-09T23:06:13.350528","MEAN_MOTION":15.05603019,"ECCENTRICITY":0.00142209,"INCLINATION":97.6388,"RA_OF_ASC_NODE":145.6972,"ARG_OF_PERICENTER":344.4497,"MEAN_ANOMALY":15.6291,"EPHEMERIS_TYPE":0,"CLASSIFICATION_TYPE":"U","NORAD_CAT_ID":66997,"ELEMENT_SET_NO":999,"REV_AT_EPOCH":1350,"BSTAR":0.00040225725,"MEAN_MOTION_DOT":5.752e-5,"MEAN_MOTION_DDOT":0}]
